NORAD_CAT_ID,OBJECT_NAME,OBJECT_TYPE,EPOCH,MEAN_MOTION,ECCENTRICITY,INCLINATION,RA_OF_ASC_NODE,ARG_OF_PERICENTER,MEAN_ANOMALY,BSTAR,MEAN_MOTION_DOT,MEAN_MOTION_DDOT,TLE_LINE0,TLE_LINE1,TLE_LINE2,SEMIMAJOR_AXIS,PERIOD,APOGEE,PERIGEE,DECAYED
50204.0,STARLINK-3254,PAYLOAD,2022-06-29 05:17:24,15.08839692,0.0002511,53.2184,177.1247,42.1127,318.0058,6.1373e-05,6.88e-06,0.0,0 STARLINK-3254,1 50204U 21125BA  22180.22042292  .00000688  00000-0  61373-4 0  9994,2 50204  53.2184 177.1247 0002511  42.1127 318.0058 15.08839692 29930,6917.880999999999,95.438,541.4830000000002,538.009,0.0
50204.0,STARLINK-3254,PAYLOAD,2022-06-29 06:52:47,15.08840409,0.0002512,53.2184,176.8273,42.2435,317.875,6.6185e-05,7.65e-06,0.0,0 STARLINK-3254,1 50204U 21125BA  22180.28666234  .00000765  00000-0  66185-4 0  9990,2 50204  53.2184 176.8273 0002512  42.2435 317.8750 15.08840409 33073,6917.879,95.438,541.482,538.006,0.0
50204.0,STARLINK-3254,PAYLOAD,2022-06-29 16:25:06,15.08841583,0.0002549,53.2185,175.0433,42.858,317.2611,5.5687e-05,5.98e-06,0.0,0 STARLINK-3254,1 50204U 21125BA  22180.68410144  .00000598  00000-0  55687-4 0  9990,2 50204  53.2185 175.0433 0002549  42.8580 317.2611 15.08841583 33131,6917.876,95.437,541.504,537.977,0.0
50204.0,STARLINK-3254,PAYLOAD,2022-06-30 08:18:57,15.08844519,0.0002598,53.2185,172.0698,43.9766,316.1432,5.442e-05,5.78e-06,0.0,0 STARLINK-3254,1 50204U 21125BA  22181.34649801  .00000578  00000-0  54420-4 0  9990,2 50204  53.2185 172.0698 0002598  43.9766 316.1432 15.08844519 33235,6917.8669999999975,95.437,541.529,537.934,0.0
50204.0,STARLINK-3254,PAYLOAD,2022-06-30 16:15:52,15.08845247,0.0002622,53.2186,170.583,44.3915,315.7287,5.471100000000001e-05,5.82e-06,0.0,0 STARLINK-3254,1 50204U 21125BA  22181.67769635  .00000582  00000-0  54711-4 0  9992,2 50204  53.2186 170.5830 0002622  44.3915 315.7287 15.08845247 33283,6917.864000000001,95.437,541.543,537.915,0.0
50204.0,STARLINK-3254,PAYLOAD,2022-07-01 08:09:45,15.08834709,0.0002644,53.2187,167.6095,45.1046,315.0161,-5.6177e-05,-1.182e-05,0.0,0 STARLINK-3254,1 50204U 21125BA  22182.34010557 -.00001182  00000-0 -56177-4 0  9996,2 50204  53.2187 167.6095 0002644  45.1046 315.0161 15.08834709 33388,6917.897,95.438,541.591,537.932,0.0
50204.0,STARLINK-3254,PAYLOAD,2022-07-01 16:06:41,15.08832712,0.0002657,53.2188,166.1228,45.5327,314.5882,-7.8045e-05,-1.53e-05,0.0,0 STARLINK-3254,1 50204U 21125BA  22182.67130837 -.00001530  00000-0 -78045-4 0  9991,2 50204  53.2188 166.1228 0002657  45.5327 314.5882 15.08832712 33433,6917.903,95.438,541.606,537.93,0.0
50204.0,STARLINK-3254,PAYLOAD,2022-07-02 08:00:32,15.08835269,0.0002683,53.2188,163.1492,46.6093,313.5122,-5.7037e-05,-1.196e-05,0.0,0 STARLINK-3254,1 50204U 21125BA  22183.33370812 -.00001196  00000-0 -57037-4 0  9990,2 50204  53.2188 163.1492 0002683  46.6093 313.5122 15.08835269 33531,6917.895,95.438,541.616,537.904,0.0
50204.0,STARLINK-3254,PAYLOAD,2022-07-02 22:19:00,15.08836758,0.0002678,53.219,160.47299999999996,46.948,313.1736,-1.6144e-05,-5.45e-06,0.0,0 STARLINK-3254,1 50204U 21125BA  22183.92986705 -.00000545  00000-0 -16144-4 0  9990,2 50204  53.2190 160.4730 0002678  46.9480 313.1736 15.08836758 30499,6917.89,95.438,541.6080000000002,537.903,0.0
50204.0,STARLINK-3254,PAYLOAD,2022-07-03 07:51:19,15.08833411,0.0002725,53.2188,158.6891,48.0054,312.117,9.3429e-05,1.199e-05,0.0,0 STARLINK-3254,1 50204U 21125BA  22184.32730660  .00001199  00000-0  93429-4 0  9997,2 50204  53.2188 158.6891 0002725  48.0054 312.1170 15.08833411 33684,6917.901,95.438,541.651,537.88,0.0
50204.0,STARLINK-3254,PAYLOAD,2022-07-03 22:09:47,15.0883757,0.0002752,53.2188,156.013,49.0972,311.0259,8.8334e-05,1.118e-05,0.0,0 STARLINK-3254,1 50204U 21125BA  22184.92346620  .00001118  00000-0  88334-4 0  9992,2 50204  53.2188 156.0130 0002752  49.0972 311.0259 15.08837570 33778,6917.888000000001,95.438,541.6569999999998,537.849,0.0
50204.0,STARLINK-3254,PAYLOAD,2022-07-04 04:31:19,15.0884003,0.0002772,53.2188,154.8237,49.5331,310.5902,0.00010769,1.426e-05,0.0,0 STARLINK-3254,1 50204U 21125BA  22185.18842474  .00001426  00000-0  10769-3 0  9997,2 50204  53.2188 154.8237 0002772  49.5331 310.5902 15.08840030 30689,6917.88,95.438,541.663,537.828,0.0
50204.0,STARLINK-3254,PAYLOAD,2022-07-04 07:42:06,15.08841507,0.0002772,53.2187,154.2288,50.0213,310.1022,0.00011615,1.561e-05,0.0,0 STARLINK-3254,1 50204U 21125BA  22185.32090359  .00001561  00000-0  11615-3 0  9991,2 50204  53.2187 154.2288 0002772  50.0213 310.1022 15.08841507 33833,6917.876,95.437,541.658,537.823,0.0
50204.0,STARLINK-3254,PAYLOAD,2022-07-04 22:00:33,15.08846936,0.0002778,53.2187,151.5524,51.7741,308.35,9.0602e-05,1.154e-05,0.0,0 STARLINK-3254,1 50204U 21125BA  22185.91705968  .00001154  00000-0  90602-4 0  9997,2 50204  53.2187 151.5524 0002778  51.7741 308.3500 15.08846936 33927,6917.859,95.437,541.646,537.802,0.0
50204.0,STARLINK-3254,PAYLOAD,2022-07-05 07:32:53,15.08840483,0.000276,53.2189,149.7682,49.6127,310.5106,1.7537e-05,-9e-08,0.0,0 STARLINK-3254,1 50204U 21125BA  22186.31450595 -.00000009  00000-0  17537-4 0  9990,2 50204  53.2189 149.7682 0002760  49.6127 310.5106 15.08840483 30855,6917.879,95.438,541.653,537.835,0.0
50204.0,STARLINK-3254,PAYLOAD,2022-07-05 21:51:21,15.08840325,0.0002691,53.2191,147.0917,50.9781,309.145,-1.8447e-05,-5.82e-06,0.0,0 STARLINK-3254,1 50204U 21125BA  22186.91066688 -.00000582  00000-0 -18447-4 0  9990,2 50204  53.2191 147.0917 0002691  50.9781 309.1450 15.08840325 34073,6917.879,95.438,541.606,537.883,0.0
50204.0,STARLINK-3254,PAYLOAD,2022-07-06 13:45:12,15.08847263,0.0002765,53.2192,144.1191,52.7082,307.4162,1.6732000000000002e-05,-2.2e-07,0.0,0 STARLINK-3254,1 50204U 21125BA  22187.57305970 -.00000022  00000-0  16732-4 0  9996,2 50204  53.2192 144.1191 0002765  52.7082 307.4162 15.08847263 34172,6917.858,95.437,541.636,537.81,0.0
50204.0,STARLINK-3254,PAYLOAD,2022-07-07 07:14:28,15.08829357,0.00028,53.2196,140.849,55.7787,304.347,-6.6394e-06,-3.94e-06,0.0,0 STARLINK-3254,1 50204U 21125BA  22188.30171298 -.00000394  00000-0 -66394-5 0  9995,2 50204  53.2196 140.8490 0002800  55.7787 304.3470 15.08829357 34280,6917.913000000001,95.438,541.715,537.841,0.0
50204.0,STARLINK-3254,PAYLOAD,2022-07-07 21:32:56,15.08837656,0.0002805,53.2197,138.1729,56.853,303.2731,2.524e-06,-2.48e-06,0.0,0 STARLINK-3254,1 50204U 21125BA  22188.89787047 -.00000248  00000-0  25240-5 0  9996,2 50204  53.2197 138.1729 0002805  56.8530 303.2731 15.08837656 34378,6917.888000000001,95.438,541.693,537.812,0.0
50204.0,STARLINK-3254,PAYLOAD,2022-07-08 03:54:28,15.08842254,0.0002816,53.2194,136.9835,57.1087,303.0176,4.0744e-05,3.6000000000000007e-06,0.0,0 STARLINK-3254,1 50204U 21125BA  22189.16282631  .00000360  00000-0  40744-4 0  9995,2 50204  53.2194 136.9835 0002816  57.1087 303.0176 15.08842254 31280,6917.873000000001,95.437,541.687,537.79,0.0
50204.0,STARLINK-3254,PAYLOAD,2022-07-08 05:29:51,15.08844641,0.0002818,53.2195,136.6862,57.7439,302.3826,6.110100000000001e-05,6.84e-06,0.0,0 STARLINK-3254,1 50204U 21125BA  22189.22906416  .00000684  00000-0  61101-4 0  9995,2 50204  53.2195 136.6862 0002818  57.7439 302.3826 15.08844641 34422,6917.866,95.437,541.681,537.7819999999998,0.0
50204.0,STARLINK-3254,PAYLOAD,2022-07-08 19:48:18,15.0885077,0.0002801,53.219,134.0092,55.9805,304.1453,0.000198,2.865e-05,0.0,0 STARLINK-3254,1 50204U 21125BA  22189.82521316  .00002865  00000-0  19800-3 0  9994,2 50204  53.2190 134.0092 0002801  55.9805 304.1453 15.08850770 34519,6917.847,95.437,541.65,537.775,0.0
50204.0,STARLINK-3254,PAYLOAD,2022-07-09 05:20:37,15.08859984,0.0002872,53.2181,132.2252,57.0408,303.086,0.00035108,5.307e-05,0.0,0 STARLINK-3254,1 50204U 21125BA  22190.22265063  .00005307  00000-0  35108-3 0  9997,2 50204  53.2181 132.2252 0002872  57.0408 303.0860 15.08859984 34579,6917.819,95.436,541.6709999999998,537.698,0.0
50204.0,STARLINK-3254,PAYLOAD,2022-07-09 13:17:33,15.08842662,0.0003015,53.218,130.738,56.5335,303.5945,7.455e-05,8.98e-06,0.0,0 STARLINK-3254,1 50204U 21125BA  22190.55385970  .00000898  00000-0  74550-4 0  9998,2 50204  53.2180 130.7380 0003015  56.5335 303.5945 15.08842662 31498,6917.871999999999,95.437,541.823,537.6519999999998,0.0
50204.0,STARLINK-3254,PAYLOAD,2022-07-10 05:11:25,15.08821592,0.0002787,53.2174,127.7642,55.1792,304.9462,-0.00030503,-5.138e-05,0.0,0 STARLINK-3254,1 50204U 21125BA  22191.21626741 -.00005138  00000-0 -30503-3 0  9999,2 50204  53.2174 127.7642 0002787  55.1792 304.9462 15.08821592 31594,6917.937,95.439,541.73,537.874,0.0
50204.0,STARLINK-3254,PAYLOAD,2022-07-10 19:29:54,15.08831646,0.000272,53.2176,125.0887,56.3384,303.7867,0.0011438,0.00017959,0.0,0 STARLINK-3254,1 50204U 21125BA  22191.81243643  .00017959  00000-0  11438-2 0  9998,2 50204  53.2176 125.0887 0002720  56.3384 303.7867 15.08831646 34810,6917.906,95.438,541.653,537.889,0.0
50204.0,STARLINK-3254,PAYLOAD,2022-07-11 05:02:13,15.0884418,0.000265,53.2179,123.3046,55.9094,304.2149,0.00097113,0.00015203,0.0,0 STARLINK-3254,1 50204U 21125BA  22192.20987636  .00015203  00000-0  97113-3 0  9994,2 50204  53.2179 123.3046 0002650  55.9094 304.2149 15.08844180 31741,6917.868,95.437,541.566,537.899,0.0
50204.0,STARLINK-3254,PAYLOAD,2022-07-11 12:59:08,15.08853674,0.0002644,53.2182,121.8176,57.0666,303.0581,0.00098273,0.00015393,0.0,0 STARLINK-3254,1 50204U 21125BA  22192.54107458  .00015393  00000-0  98273-3 0  9995,2 50204  53.2182 121.8176 0002644  57.0666 303.0581 15.08853674 34921,6917.839,95.437,541.533,537.875,0.0
50204.0,STARLINK-3254,PAYLOAD,2022-07-11 19:20:41,15.08863024,0.0002663,53.2183,120.6285,57.3532,302.7717,0.0010966,0.00017219,0.0,0 STARLINK-3254,1 50204U 21125BA  22192.80603177  .00017219  00000-0  10966-2 0  9994,2 50204  53.2183 120.6285 0002663  57.3532 302.7717 15.08863024 34967,6917.81,95.436,541.5169999999998,537.8330000000002,0.0
